[{"OBJECT_NAME":"STARLINK-30918","OBJECT_ID":"2023-177Q","EPOCH":"2026-03-09T22:00:01.999584","MEAN_MOTION":15.26731725,"ECCENTRICITY":0.00016358,"INCLINATION":43.0004,"RA_OF_ASC_NODE":349.2604,"ARG_OF_PERICENTER":263.222,"MEAN_ANOMALY":68.6166,"EPHEMERIS_TYPE":0,"CLASSIFICATION_TYPE":"U","NORAD_CAT_ID":58365,"ELEMENT_SET_NO":999,"REV_AT_EPOCH":578,"BSTAR":-0.00013246726,"MEAN_MOTION_DOT":-3.81e-5,"MEAN_MOTION_DDOT":0},{"OBJECT_NAME":"FLOCK 4G-17","OBJECT_ID":"2025-009CA","EPOCH":"2026-03-09T22:51:51.984864","MEAN_MOTION":15.27385439,"ECCENTRICITY":0.00036407,"INCLINATION":97.3966,"RA_OF_ASC_NODE":151.0229,"ARG_OF_PERICENTER":339.6132,"MEAN_ANOMALY":20.4962,"EPHEMERIS_TYPE":0,"CLASSIFICATION_TYPE":"U","NORAD_CAT_ID":62681,"ELEMENT_SET_NO":999,"REV_AT_EPOCH":12139,"BSTAR":0.00053710713,"MEAN_MOTION_DOT":0.00014342,"MEAN_MOTION_DDOT":0}]
